*******************************************************************************
Ephemeris / WWW_USER Mon Mar 26 19:39:30 2018 Pasadena, USA      / Horizons    
*******************************************************************************
Target body name: Phobos (401)                    {source: mar097}
Center body name: Mars Barycenter (4)             {source: mar097}
Center-site name: BODY CENTER
*******************************************************************************
Start time      : A.D. 2000-Jan-01 00:00:00.0000 TDB
Stop  time      : A.D. 2001-Jan-01 00:00:00.0000 TDB
Step-size       : 7200 minutes
*******************************************************************************
Center geodetic : 0.00000000,0.00000000,0.0000000 {E-lon(deg),Lat(deg),Alt(km)}
Center cylindric: 0.00000000,0.00000000,0.0000000 {E-lon(deg),Dxy(km),Dz(km)}
Center radii    : (undefined)                                                  
Output units    : AU-D                                                         
Output type     : GEOMETRIC cartesian states
Output format   : 2 (position and velocity)
Reference frame : ICRF/J2000.0                                                 
Coordinate systm: Ecliptic and Mean Equinox of Reference Epoch                 
*******************************************************************************
JDTDB
   X     Y     Z
   VX    VY    VZ
*******************************************************************************
$$SOE
2451544.500000000 = A.D. 2000-Jan-01 00:00:00.0000 TDB 
   3.421064480123905E-05  4.933246057171977E-05 -1.447383368702842E-05
  -8.901076899247668E-04  7.480908205574893E-04  4.664156589663167E-04
2451549.500000000 = A.D. 2000-Jan-06 00:00:00.0000 TDB 
   2.440787257635571E-05 -5.662109227340416E-05 -1.438331308318092E-05
   9.872215430895325E-04  5.566903696899044E-04 -4.569685297562740E-04
2451554.500000000 = A.D. 2000-Jan-11 00:00:00.0000 TDB 
  -5.656290286264844E-05 -3.944149431954189E-06  2.745297940415693E-05
   3.255522434771039E-05 -1.225863672345366E-03 -6.919266247659833E-05
2451559.500000000 = A.D. 2000-Jan-16 00:00:00.0000 TDB 
   2.356403699528504E-05  5.632816909007364E-05 -9.096279210734976E-06
  -1.020329021598370E-03  5.079100296356874E-04  5.210301090515585E-04
2451564.500000000 = A.D. 2000-Jan-21 00:00:00.0000 TDB 
   3.494321892173556E-05 -4.907473459190763E-05 -1.922412514523664E-05
   8.581244776287165E-04  7.816116619362169E-04 -3.869814363385822E-04
2451569.500000000 = A.D. 2000-Jan-26 00:00:00.0000 TDB 
  -5.468423797306728E-05 -1.758613110001410E-05  2.609093276479482E-05
   2.729063202445551E-04 -1.181340271230081E-03 -1.842198443349166E-04
2451574.500000000 = A.D. 2000-Jan-31 00:00:00.0000 TDB 
   1.176027809640848E-05  6.050521318759889E-05 -3.221707673232869E-06
  -1.099538893243138E-03  2.422969799869762E-04  5.508288261282739E-04
2451579.500000000 = A.D. 2000-Feb-05 00:00:00.0000 TDB 
   4.375821516085689E-05 -3.918296329225432E-05 -2.319936226995056E-05
   6.873852517435771E-04  9.695148428954893E-04 -2.977361849321068E-04
2451584.500000000 = A.D. 2000-Feb-10 00:00:00.0000 TDB 
  -5.016339360122031E-05 -3.039835203962632E-05  2.347491951806783E-05
   4.985705807659912E-04 -1.079954682356541E-03 -2.911961963628207E-04
2451589.500000000 = A.D. 2000-Feb-15 00:00:00.0000 TDB 
  -5.994818126330431E-07  6.165390832903804E-05  2.868563165761171E-06
  -1.123842219095019E-03 -3.535700381878582E-05  5.539437362918063E-04
2451594.500000000 = A.D. 2000-Feb-20 00:00:00.0000 TDB 
   5.043339675442204E-05 -2.741903570907935E-05 -2.610891661370485E-05
   4.831300136018508E-04  1.111131807114933E-03 -1.930014584689207E-04
2451599.500000000 = A.D. 2000-Feb-25 00:00:00.0000 TDB 
  -4.323024011528257E-05 -4.176849034494025E-05  1.970892878281571E-05
   6.988928364135850E-04 -9.268494360231666E-04 -3.850577860081411E-04
2451604.500000000 = A.D. 2000-Mar-01 00:00:00.0000 TDB 
  -1.289878292376925E-05  5.971665850323876E-05  8.880901773185836E-06
  -1.092258320093366E-03 -3.112002404570901E-04  5.298133955427689E-04
2451609.500000000 = A.D. 2000-Mar-06 00:00:00.0000 TDB 
   5.464916855091695E-05 -1.435230782785140E-05 -2.779442059246235E-05
   2.552971486714310E-04  1.199398207289857E-03 -7.749481906033621E-05
2451614.500000000 = A.D. 2000-Mar-11 00:00:00.0000 TDB 
  -3.423475316933733E-05 -5.114495153113438E-05  1.495742637021486E-05
   8.644032123491362E-04 -7.296472549638866E-04 -4.611692354196987E-04
2451619.500000000 = A.D. 2000-Mar-16 00:00:00.0000 TDB 
  -2.452586793124100E-05  5.479128502098693E-05  1.451649160333477E-05
  -1.006542122288695E-03 -5.713951777067747E-04  4.791901693774126E-04
2451624.500000000 = A.D. 2000-Mar-21 00:00:00.0000 TDB 
   5.621055678987224E-05 -6.088074024383329E-07 -2.815489428897920E-05
   1.478526376395666E-05  1.229791970137474E-03  4.347565489895566E-05
2451629.500000000 = A.D. 2000-Mar-26 00:00:00.0000 TDB 
  -2.361488375456661E-05 -5.808168297002924E-05  9.431824165148401E-06
   9.875473751151333E-04 -4.979127821005332E-04 -5.157244723652838E-04
2451634.500000000 = A.D. 2000-Mar-31 00:00:00.0000 TDB 
  -3.490271838872718E-05  4.712382676746045E-05  1.948708720521644E-05
  -8.713688045669583E-04 -8.029093973897502E-04  4.042769454366573E-04
2451639.500000000 = A.D. 2000-Apr-05 00:00:00.0000 TDB 
   5.504955882920672E-05  1.313787055853362E-05 -2.714904827905549E-05
  -2.266976680844616E-04  1.200476699528806E-03  1.640761121379695E-04
2451644.500000000 = A.D. 2000-Apr-10 00:00:00.0000 TDB 
  -1.188689804973498E-05 -6.224842754341689E-05  3.387421517999086E-06
   1.062727685609391E-03 -2.428216646497132E-04 -5.457811999219223E-04
2451649.500000000 = A.D. 2000-Apr-15 00:00:00.0000 TDB 
  -4.352452069393292E-05  3.709486443957676E-05  2.353340507709633E-05
  -6.937351971174993E-04 -9.943159933994824E-04  3.084919758840323E-04
2451654.500000000 = A.D. 2000-Apr-20 00:00:00.0000 TDB 
   5.122981188888747E-05  2.622350283382114E-05 -2.480213832979293E-05
  -4.575314579603705E-04  1.112521439877576E-03  2.783648096573228E-04
2451659.500000000 = A.D. 2000-Apr-25 00:00:00.0000 TDB 
   3.847574573059115E-07 -6.344604243755979E-05 -2.888820332417846E-06
   1.086814090258346E-03  2.332769671278381E-05 -5.496079981842605E-04
2451664.500000000 = A.D. 2000-Apr-30 00:00:00.0000 TDB 
  -4.996818727366270E-05  2.521025260703208E-05  2.643434982443851E-05
  -4.828055865849690E-04 -1.136093336376587E-03  1.964678141574387E-04
2451669.500000000 = A.D. 2000-May-05 00:00:00.0000 TDB 
   4.494521199924737E-05  3.800880002161882E-05 -2.120962993936634E-05
  -6.664332097554490E-04  9.698016031117942E-04  3.804702864304957E-04
2451674.500000000 = A.D. 2000-May-10 00:00:00.0000 TDB 
   1.261954076095891E-05 -6.161971120431230E-05 -9.096438970858843E-06
   1.059025436532784E-03  2.879433442069643E-04 -5.266890942868176E-04
2451679.500000000 = A.D. 2000-May-15 00:00:00.0000 TDB 
  -5.392800647553827E-05  1.205775232224626E-05  2.802656002939580E-05
  -2.491888888255270E-04 -1.221391463929516E-03  7.368730275691153E-05
2451684.500000000 = A.D. 2000-May-20 00:00:00.0000 TDB 
   3.650648136065320E-05  4.791581060267701E-05 -1.653134497121857E-05
  -8.432399521307243E-04  7.790765729799738E-04  4.650073313822306E-04
2451689.500000000 = A.D. 2000-May-25 00:00:00.0000 TDB 
   2.423177919804020E-05 -5.685863654501471E-05 -1.492486020223206E-05
   9.809988627467394E-04  5.383407269458758E-04 -4.778220864715541E-04
2451694.500000000 = A.D. 2000-May-30 00:00:00.0000 TDB 
  -5.522144225778570E-05 -1.706108344477486E-06  2.821101113951715E-05
  -4.591811854936208E-06 -1.246099684788126E-03 -5.363980681665771E-05
2451699.500000000 = A.D. 2000-Jun-04 00:00:00.0000 TDB 
   2.632447406245072E-05  5.546179054765868E-05 -1.098655958751076E-05
  -9.793472760977924E-04  5.493505623565049E-04  5.273480634311482E-04
2451704.500000000 = A.D. 2000-Jun-09 00:00:00.0000 TDB 
   3.468003910331252E-05 -4.938917347774719E-05 -2.008213324735431E-05
   8.566318791913226E-04  7.627326891420696E-04 -4.050875723723576E-04
2451709.500000000 = A.D. 2000-Jun-14 00:00:00.0000 TDB 
  -5.379597191935002E-05 -1.540078644765812E-05  2.696014333373904E-05
   2.389226353413843E-04 -1.209348447922053E-03 -1.790091604467029E-04
2451714.500000000 = A.D. 2000-Jun-19 00:00:00.0000 TDB 
   1.490185403282747E-05  6.026901729628871E-05 -4.848256441169394E-06
  -1.067993531232434E-03  2.918259872097846E-04  5.638396992726304E-04
2451719.500000000 = A.D. 2000-Jun-24 00:00:00.0000 TDB 
   4.347401355297235E-05 -3.957224972457527E-05 -2.430125225516606E-05
   6.919542369629946E-04  9.503823698505154E-04 -3.117868747085639E-04
2451724.500000000 = A.D. 2000-Jun-29 00:00:00.0000 TDB 
  -4.973264332005648E-05 -2.835393527766837E-05  2.432026773484269E-05
   4.695549048414174E-04 -1.113205235383065E-03 -2.959654136312454E-04
2451729.500000000 = A.D. 2000-Jul-04 00:00:00.0000 TDB 
   2.791379913120972E-06  6.210005552865777E-05  1.577473903972101E-06
  -1.104784370911599E-03  1.899978710088305E-05  5.721246098797996E-04
2451734.500000000 = A.D. 2000-Jul-09 00:00:00.0000 TDB 
   5.020671562875767E-05 -2.787477558022653E-05 -2.735942616198570E-05
   4.948373194932171E-04  1.092469177548505E-03 -2.023326791616236E-04
2451739.500000000 = A.D. 2000-Jul-14 00:00:00.0000 TDB 
  -4.324016712463570E-05 -3.992073341703301E-05  2.041372418970059E-05
   6.761146099355788E-04 -9.627962064165322E-04 -3.983564479236686E-04
2451744.500000000 = A.D. 2000-Jul-19 00:00:00.0000 TDB 
  -9.413506934310735E-06  6.086334778777577E-05  7.958610215567316E-06
  -1.087740840539444E-03 -2.556099206104699E-04  5.512775878224622E-04
2451749.500000000 = A.D. 2000-Jul-24 00:00:00.0000 TDB 
   5.456975206786725E-05 -1.485191248039953E-05 -2.909166775033799E-05
   2.744992412062399E-04  1.182234130314573E-03 -8.197936769273129E-05
